{
  "type": "FeatureCollection",
  "features": [
    {
      "type": "Feature",
      "properties": {
        "route_id": "highway_downtown",
        "lengthInMeters": 869,
        "travelTimeInSeconds": 45
      },
      "geometry": {
        "type": "LineString",
        "coordinates": [
          [
            -46.7225,
            -23.65195
          ],
          [
            -46.72257,
            -23.65189
          ],
          [
            -46.7231,
            -23.65134
          ],
          [
            -46.72357,
            -23.65082
          ],
          [
            -46.72381,
            -23.65054
          ],
          [
            -46.72436,
            -23.64989
          ],
          [
            -46.72455,
            -23.64962
          ],
          [
            -46.72475,
            -23.6493
          ],
          [
            -46.72494,
            -23.64893
          ],
          [
            -46.7251,
            -23.6485
          ],
          [
            -46.72528,
            -23.64793
          ],
          [
            -46.7254,
            -23.6474
          ],
          [
            -46.72554,
            -23.64676
          ],
          [
            -46.7256,
            -23.64628
          ],
          [
            -46.72562,
            -23.64564
          ],
          [
            -46.72557,
            -23.64498
          ],
          [
            -46.72557,
            -23.64494
          ]
        ]
      }
    },
    {
      "type": "Feature",
      "properties": {
        "route_id": "highway_neighborhood",
        "lengthInMeters": 908,
        "travelTimeInSeconds": 61
      },
      "geometry": {
        "type": "LineString",
        "coordinates": [
          [
            -46.72742,
            -23.64472
          ],
          [
            -46.72746,
            -23.64507
          ],
          [
            -46.72753,
            -23.64571
          ],
          [
            -46.72755,
            -23.64588
          ],
          [
            -46.72762,
            -23.64652
          ],
          [
            -46.72764,
            -23.64684
          ],
          [
            -46.72769,
            -23.64725
          ],
          [
            -46.72769,
            -23.64743
          ],
          [
            -46.72764,
            -23.64771
          ],
          [
            -46.72757,
            -23.64797
          ],
          [
            -46.72752,
            -23.64817
          ],
          [
            -46.72749,
            -23.64832
          ],
          [
            -46.72746,
            -23.64861
          ],
          [
            -46.72743,
            -23.6488
          ],
          [
            -46.72742,
            -23.64895
          ],
          [
            -46.72741,
            -23.64899
          ],
          [
            -46.72737,
            -23.64911
          ],
          [
            -46.72735,
            -23.64916
          ],
          [
            -46.72727,
            -23.64933
          ],
          [
            -46.72722,
            -23.64939
          ],
          [
            -46.72716,
            -23.6495
          ],
          [
            -46.72697,
            -23.64974
          ],
          [
            -46.72688,
            -23.64984
          ],
          [
            -46.72678,
            -23.64998
          ],
          [
            -46.72661,
            -23.6502
          ],
          [
            -46.7265,
            -23.65036
          ],
          [
            -46.7264,
            -23.65051
          ],
          [
            -46.72634,
            -23.6506
          ],
          [
            -46.72618,
            -23.65088
          ],
          [
            -46.72604,
            -23.65116
          ],
          [
            -46.7259,
            -23.65143
          ],
          [
            -46.72549,
            -23.65228
          ],
          [
            -46.72543,
            -23.65241
          ]
        ]
      }
    },
    {
      "type": "Feature",
      "properties": {
        "route_id": "urban_road_downtown",
        "lengthInMeters": 1808,
        "travelTimeInSeconds": 247
      },
      "geometry": {
        "type": "LineString",
        "coordinates": [
          [
            -46.66271,
            -23.55559
          ],
          [
            -46.66263,
            -23.55553
          ],
          [
            -46.66235,
            -23.5553
          ],
          [
            -46.66165,
            -23.55473
          ],
          [
            -46.6616,
            -23.55469
          ],
          [
            -46.66118,
            -23.55435
          ],
          [
            -46.6608,
            -23.55404
          ],
          [
            -46.66062,
            -23.5539
          ],
          [
            -46.66035,
            -23.55368
          ],
          [
            -46.65996,
            -23.55342
          ],
          [
            -46.65968,
            -23.55322
          ],
          [
            -46.65909,
            -23.55283
          ],
          [
            -46.65875,
            -23.5526
          ],
          [
            -46.6586,
            -23.55251
          ],
          [
            -46.65818,
            -23.55228
          ],
          [
            -46.65744,
            -23.5519
          ],
          [
            -46.65704,
            -23.5517
          ],
          [
            -46.65685,
            -23.55159
          ],
          [
            -46.65657,
            -23.55144
          ],
          [
            -46.65651,
            -23.55141
          ],
          [
            -46.65634,
            -23.55132
          ],
          [
            -46.65563,
            -23.55095
          ],
          [
            -46.65548,
            -23.55088
          ],
          [
            -46.65527,
            -23.55077
          ],
          [
            -46.6549,
            -23.55057
          ],
          [
            -46.65471,
            -23.55047
          ],
          [
            -46.65463,
            -23.55042
          ],
          [
            -46.65454,
            -23.55037
          ],
          [
            -46.65413,
            -23.55013
          ],
          [
            -46.65375,
            -23.54992
          ],
          [
            -46.65347,
            -23.54976
          ],
          [
            -46.65333,
            -23.54968
          ],
          [
            -46.65295,
            -23.54946
          ],
          [
            -46.65264,
            -23.54928
          ],
          [
            -46.65248,
            -23.54919
          ],
          [
            -46.65229,
            -23.5491
          ],
          [
            -46.65221,
            -23.54906
          ],
          [
            -46.6517,
            -23.54887
          ],
          [
            -46.65122,
            -23.5487
          ],
          [
            -46.65059,
            -23.5485
          ],
          [
            -46.6503,
            -23.54841
          ],
          [
            -46.64948,
            -23.54815
          ],
          [
            -46.64903,
            -23.54799
          ],
          [
            -46.64872,
            -23.54789
          ],
          [
            -46.64845,
            -23.5478
          ],
          [
            -46.64826,
            -23.54774
          ],
          [
            -46.64795,
            -23.54764
          ],
          [
            -46.64788,
            -23.54761
          ],
          [
            -46.64777,
            -23.54757
          ],
          [
            -46.64757,
            -23.54751
          ],
          [
            -46.6475,
            -23.54748
          ]
        ]
      }
    },
    {
      "type": "Feature",
      "properties": {
        "route_id": "urban_road_neighborhood",
        "lengthInMeters": 1813,
        "travelTimeInSeconds": 248
      },
      "geometry": {
        "type": "LineString",
        "coordinates": [
          [
            -46.6476,
            -23.54734
          ],
          [
            -46.64767,
            -23.54736
          ],
          [
            -46.64775,
            -23.54739
          ],
          [
            -46.64795,
            -23.54746
          ],
          [
            -46.648,
            -23.54748
          ],
          [
            -46.64833,
            -23.5476
          ],
          [
            -46.6485,
            -23.54766
          ],
          [
            -46.64867,
            -23.54772
          ],
          [
            -46.64908,
            -23.54785
          ],
          [
            -46.64915,
            -23.54787
          ],
          [
            -46.64925,
            -23.54791
          ],
          [
            -46.6495,
            -23.548
          ],
          [
            -46.64971,
            -23.54807
          ],
          [
            -46.65033,
            -23.54828
          ],
          [
            -46.65059,
            -23.54836
          ],
          [
            -46.65093,
            -23.54845
          ],
          [
            -46.6511,
            -23.54852
          ],
          [
            -46.65167,
            -23.5487
          ],
          [
            -46.65185,
            -23.54875
          ],
          [
            -46.65193,
            -23.54878
          ],
          [
            -46.65219,
            -23.54887
          ],
          [
            -46.65229,
            -23.54891
          ],
          [
            -46.65243,
            -23.54898
          ],
          [
            -46.65264,
            -23.5491
          ],
          [
            -46.65303,
            -23.54932
          ],
          [
            -46.65321,
            -23.54942
          ],
          [
            -46.65343,
            -23.54953
          ],
          [
            -46.65384,
            -23.54976
          ],
          [
            -46.65393,
            -23.54982
          ],
          [
            -46.65408,
            -23.5499
          ],
          [
            -46.65441,
            -23.55009
          ],
          [
            -46.65465,
            -23.55022
          ],
          [
            -46.65479,
            -23.5503
          ],
          [
            -46.65504,
            -23.55043
          ],
          [
            -46.65538,
            -23.5506
          ],
          [
            -46.65556,
            -23.5507
          ],
          [
            -46.65573,
            -23.55079
          ],
          [
            -46.65644,
            -23.55116
          ],
          [
            -46.65655,
            -23.55122
          ],
          [
            -46.65661,
            -23.55125
          ],
          [
            -46.6567,
            -23.55129
          ],
          [
            -46.65713,
            -23.55153
          ],
          [
            -46.65755,
            -23.55176
          ],
          [
            -46.65784,
            -23.55189
          ],
          [
            -46.65815,
            -23.55205
          ],
          [
            -46.65858,
            -23.55228
          ],
          [
            -46.65866,
            -23.55232
          ],
          [
            -46.65888,
            -23.55246
          ],
          [
            -46.65903,
            -23.55255
          ],
          [
            -46.65933,
            -23.55276
          ],
          [
            -46.65984,
            -23.55309
          ],
          [
            -46.66011,
            -23.55329
          ],
          [
            -46.66024,
            -23.55338
          ],
          [
            -46.66059,
            -23.55363
          ],
          [
            -46.66094,
            -23.55391
          ],
          [
            -46.66105,
            -23.554
          ],
          [
            -46.66131,
            -23.55422
          ],
          [
            -46.66177,
            -23.5546
          ],
          [
            -46.66189,
            -23.55469
          ],
          [
            -46.66238,
            -23.5551
          ],
          [
            -46.66263,
            -23.5553
          ],
          [
            -46.66277,
            -23.55541
          ],
          [
            -46.66283,
            -23.55547
          ]
        ]
      }
    },
    {
      "type": "Feature",
      "properties": {
        "route_id": "intersection_main_street_downtown",
        "lengthInMeters": 980,
        "travelTimeInSeconds": 110
      },
      "geometry": {
        "type": "LineString",
        "coordinates": [
          [
            -46.72841,
            -23.58889
          ],
          [
            -46.72787,
            -23.58858
          ],
          [
            -46.7274,
            -23.5883
          ],
          [
            -46.72715,
            -23.58813
          ],
          [
            -46.72676,
            -23.58788
          ],
          [
            -46.72663,
            -23.58778
          ],
          [
            -46.72614,
            -23.58744
          ],
          [
            -46.72591,
            -23.5873
          ],
          [
            -46.72583,
            -23.58724
          ],
          [
            -46.7257,
            -23.58718
          ],
          [
            -46.7253,
            -23.58702
          ],
          [
            -46.72521,
            -23.58699
          ],
          [
            -46.72493,
            -23.58689
          ],
          [
            -46.72463,
            -23.58677
          ],
          [
            -46.72441,
            -23.58668
          ],
          [
            -46.72424,
            -23.58661
          ],
          [
            -46.72385,
            -23.58646
          ],
          [
            -46.72377,
            -23.58643
          ],
          [
            -46.72342,
            -23.5863
          ],
          [
            -46.72324,
            -23.58623
          ],
          [
            -46.72305,
            -23.58616
          ],
          [
            -46.72292,
            -23.58612
          ],
          [
            -46.72269,
            -23.58603
          ],
          [
            -46.72252,
            -23.58598
          ],
          [
            -46.72205,
            -23.58581
          ],
          [
            -46.72164,
            -23.58564
          ],
          [
            -46.72117,
            -23.58545
          ],
          [
            -46.72082,
            -23.58532
          ],
          [
            -46.72064,
            -23.58525
          ],
          [
            -46.7203,
            -23.58516
          ],
          [
            -46.72015,
            -23.58512
          ],
          [
            -46.71983,
            -23.58505
          ]
        ]
      }
    },
    {
      "type": "Feature",
      "properties": {
        "route_id": "intersection_main_street_neighborhood",
        "lengthInMeters": 1003,
        "travelTimeInSeconds": 108
      },
      "geometry": {
        "type": "LineString",
        "coordinates": [
          [
            -46.71968,
            -23.58491
          ],
          [
            -46.71999,
            -23.58497
          ],
          [
            -46.72039,
            -23.58507
          ],
          [
            -46.72065,
            -23.58515
          ],
          [
            -46.72086,
            -23.58522
          ],
          [
            -46.72113,
            -23.58531
          ],
          [
            -46.72128,
            -23.58537
          ],
          [
            -46.72174,
            -23.58557
          ],
          [
            -46.72243,
            -23.58583
          ],
          [
            -46.72257,
            -23.58588
          ],
          [
            -46.72272,
            -23.58594
          ],
          [
            -46.72309,
            -23.58606
          ],
          [
            -46.72328,
            -23.58613
          ],
          [
            -46.72355,
            -23.58622
          ],
          [
            -46.72383,
            -23.58633
          ],
          [
            -46.72428,
            -23.58651
          ],
          [
            -46.72444,
            -23.58657
          ],
          [
            -46.72463,
            -23.58664
          ],
          [
            -46.72495,
            -23.58676
          ],
          [
            -46.72529,
            -23.5869
          ],
          [
            -46.72536,
            -23.58692
          ],
          [
            -46.72575,
            -23.58708
          ],
          [
            -46.72595,
            -23.58718
          ],
          [
            -46.72619,
            -23.58733
          ],
          [
            -46.72663,
            -23.58763
          ],
          [
            -46.72682,
            -23.58776
          ],
          [
            -46.72703,
            -23.58791
          ],
          [
            -46.72718,
            -23.58801
          ],
          [
            -46.72721,
            -23.58803
          ],
          [
            -46.72739,
            -23.58814
          ],
          [
            -46.7278,
            -23.58839
          ],
          [
            -46.72807,
            -23.58857
          ],
          [
            -46.72829,
            -23.58868
          ],
          [
            -46.72842,
            -23.58876
          ],
          [
            -46.72849,
            -23.5888
          ]
        ]
      }
    },
    {
      "type": "Feature",
      "properties": {
        "route_id": "intersection_cross_street_downtown",
        "lengthInMeters": 671,
        "travelTimeInSeconds": 122
      },
      "geometry": {
        "type": "LineString",
        "coordinates": [
          [
            -46.72484,
            -23.58312
          ],
          [
            -46.72463,
            -23.58335
          ],
          [
            -46.72431,
            -23.5837
          ],
          [
            -46.72422,
            -23.58382
          ],
          [
            -46.72419,
            -23.58388
          ],
          [
            -46.72417,
            -23.58395
          ],
          [
            -46.72416,
            -23.58401
          ],
          [
            -46.72416,
            -23.58407
          ],
          [
            -46.72419,
            -23.58425
          ],
          [
            -46.72424,
            -23.58445
          ],
          [
            -46.72434,
            -23.58481
          ],
          [
            -46.72437,
            -23.58492
          ],
          [
            -46.72443,
            -23.58524
          ],
          [
            -46.72445,
            -23.58546
          ],
          [
            -46.72448,
            -23.58577
          ],
          [
            -46.72448,
            -23.58588
          ],
          [
            -46.72448,
            -23.586
          ],
          [
            -46.72447,
            -23.58616
          ],
          [
            -46.72447,
            -23.58629
          ],
          [
            -46.72444,
            -23.58657
          ],
          [
            -46.72441,
            -23.58668
          ],
          [
            -46.72436,
            -23.5868
          ],
          [
            -46.72427,
            -23.58694
          ],
          [
            -46.72417,
            -23.5871
          ],
          [
            -46.72368,
            -23.58789
          ],
          [
            -46.72339,
            -23.58835
          ],
          [
            -46.72321,
            -23.58864
          ]
        ]
      }
    },
    {
      "type": "Feature",
      "properties": {
        "route_id": "intersection_cross_street_neighborhood",
        "lengthInMeters": 675,
        "travelTimeInSeconds": 131
      },
      "geometry": {
        "type": "LineString",
        "coordinates": [
          [
            -46.72289,
            -23.5888
          ],
          [
            -46.72322,
            -23.58826
          ],
          [
            -46.72344,
            -23.58793
          ],
          [
            -46.72349,
            -23.58784
          ],
          [
            -46.724,
            -23.58704
          ],
          [
            -46.72409,
            -23.5869
          ],
          [
            -46.72424,
            -23.58661
          ],
          [
            -46.72428,
            -23.58651
          ],
          [
            -46.72431,
            -23.58624
          ],
          [
            -46.72432,
            -23.58618
          ],
          [
            -46.72434,
            -23.58589
          ],
          [
            -46.72434,
            -23.58577
          ],
          [
            -46.72432,
            -23.58546
          ],
          [
            -46.72431,
            -23.58539
          ],
          [
            -46.72425,
            -23.58508
          ],
          [
            -46.72422,
            -23.58495
          ],
          [
            -46.72406,
            -23.58436
          ],
          [
            -46.72404,
            -23.5842
          ],
          [
            -46.72403,
            -23.58412
          ],
          [
            -46.72403,
            -23.58401
          ],
          [
            -46.72404,
            -23.58397
          ],
          [
            -46.72406,
            -23.58382
          ],
          [
            -46.72412,
            -23.58371
          ],
          [
            -46.72417,
            -23.58364
          ],
          [
            -46.72455,
            -23.58323
          ]
        ]
      }
    }
  ]
}