{
    "type": "Feature",
    "properties": {},
    "geometry": {
        "type": "LineString",
        "coordinates": [
            [
                -46.72484,
                -23.58312
            ],
            [
                -46.72436,
                -23.58365
            ],
            [
                -46.72424,
                -23.58381
            ],
            [
                -46.72421,
                -23.58388
            ],
            [
                -46.72418,
                -23.58396
            ],
            [
                -46.72418,
                -23.58406
            ],
            [
                -46.72425,
                -23.5844
            ],
            [
                -46.72437,
                -23.58489
            ],
            [
                -46.72447,
                -23.5854
            ],
            [
                -46.72449,
                -23.5857
            ],
            [
                -46.72449,
                -23.58611
            ],
            [
                -46.72443,
                -23.58656
            ],
            [
                -46.72441,
                -23.58668
            ],
            [
                -46.72437,
                -23.58677
            ],
            [
                -46.72338,
                -23.58832
            ],
            [
                -46.72318,
                -23.58863
            ]
        ]
    }
}